GLOBALSTAR M023         
1 25621U 99004A   24338.59456323  .00000003  00000+0  59581-3 0  9998
2 25621  52.0113 289.0221 0010513  55.4454 116.0904 12.62485314191021
GLOBALSTAR M040         
1 25622U 99004B   24338.14171606 -.00000048  00000+0  31267-3 0  9999
2 25622  51.9927 294.2618 0001022 358.1291  15.4053 12.61992145190501
GLOBALSTAR M036         
1 25623U 99004C   24338.43183694 -.00000031  00000+0  75941-3 0  9991
2 25623  51.9993  36.2836 0010882  40.0586 332.5718 11.86582149155742
GLOBALSTAR M038         
1 25624U 99004D   24338.59759146 -.00000043  00000+0  42874-3 0  9992
2 25624  51.9979 274.8430 0002420  18.3787 152.9987 12.32515065178255
GLOBALSTAR M022         
1 25649U 99012A   24338.57471156 -.00000059  00000+0  33674-3 0  9993
2 25649  52.0029 102.6609 0003256 134.4184 306.0862 12.02492448152842
GLOBALSTAR M041         
1 25650U 99012B   24338.26311334 -.00000071  00000+0  19077-3 0  9997
2 25650  52.0041 338.9896 0002093 298.5648  61.4977 11.96662112154823
GLOBALSTAR M046         
1 25651U 99012C   24338.54217794  .00000017  00000+0  11625-2 0  9993
2 25651  52.0075  60.0258 0002273 203.7450 169.7649 12.09403359159997
GLOBALSTAR M037         
1 25652U 99012D   24338.54932844 -.00000030  00000+0  41031-3 0  9995
2 25652  52.0019  59.8467 0002596 117.7881 346.8052 12.62427888186565
